QIANFAN-81              
1 63167U 25046J   26012.81758686  .00000191  00000+0  27635-3 0  9996
2 63167  88.9790 316.6594 0016349  35.6952 324.5289 13.51015056 51683
QIANFAN-82              
1 63168U 25046K   26012.85226328  .00000190  00000+0  27483-3 0  9994
2 63168  88.9790 316.6999 0014621  43.1407 317.0887 13.50988127 51670
QIANFAN-83              
1 63169U 25046L   26012.84871346  .00000237  00000+0  29147-3 0  9991
2 63169  88.9791 316.4156 0015563  28.3001 331.8999 13.61990119 51838
QIANFAN-84              
1 63170U 25046M   26012.80576329  .00000191  00000+0  27649-3 0  9996
2 63170  88.9790 316.8372 0017523  39.3669 320.8752 13.50997881 51592
QIANFAN-85              
1 63171U 25046N   26012.80275086  .00000187  00000+0  27054-3 0  9998
2 63171  88.9790 316.7092 0014969  42.1060 318.1239 13.50986865 51667
QIANFAN-86              
1 63172U 25046P   26012.81107924  .00000189  00000+0  27420-3 0  9994
2 63172  88.9792 316.5713 0012919  46.5029 313.7194 13.50988776 51747
QIANFAN-87              
1 63173U 25046Q   26012.85652362  .00000194  00000+0  28178-3 0  9997
2 63173  88.9788 316.6770 0013478  42.1186 318.0998 13.50986524 51686
QIANFAN-88              
1 63174U 25046R   26012.79864497  .00000198  00000+0  28770-3 0  9997
2 63174  88.9791 316.6383 0014014  49.0458 311.1903 13.50992630 51704
